FLOCK 4G-6              
1 62660U 25009BD  26068.71061311  .00012261  00000+0  45910-3 0  9991
2 62660  97.3980 150.7943 0002380 348.2637  11.8546 15.27432125121307
STARLINK-35857          
1 67186U 25303Z   26068.08108226  .00025447  00000+0  93067-3 0  9999
2 67186  43.0011 314.0191 0001100 308.1629  51.9124 15.27594448 12643
