[{"OBJECT_NAME":"FLOCK 4G-6","OBJECT_ID":"2025-009BD","EPOCH":"2026-03-09T17:03:16.973568","MEAN_MOTION":15.27432125,"ECCENTRICITY":0.00023795,"INCLINATION":97.398,"RA_OF_ASC_NODE":150.7943,"ARG_OF_PERICENTER":348.2637,"MEAN_ANOMALY":11.8546,"EPHEMERIS_TYPE":0,"CLASSIFICATION_TYPE":"U","NORAD_CAT_ID":62660,"ELEMENT_SET_NO":999,"REV_AT_EPOCH":12130,"BSTAR":0.00045909501,"MEAN_MOTION_DOT":0.00012261,"MEAN_MOTION_DDOT":0},{"OBJECT_NAME":"STARLINK-35857","OBJECT_ID":"2025-303Z","EPOCH":"2026-03-09T01:56:45.507264","MEAN_MOTION":15.27594448,"ECCENTRICITY":0.00011,"INCLINATION":43.0011,"RA_OF_ASC_NODE":314.0191,"ARG_OF_PERICENTER":308.1629,"MEAN_ANOMALY":51.9124,"EPHEMERIS_TYPE":0,"CLASSIFICATION_TYPE":"U","NORAD_CAT_ID":67186,"ELEMENT_SET_NO":999,"REV_AT_EPOCH":1264,"BSTAR":0.00093066942,"MEAN_MOTION_DOT":0.00025447,"MEAN_MOTION_DDOT":0}]
